COSMOS 2433 (720)       
1 32275U 07052A   26195.60182846 -.00000063  00000+0  00000+0 0  9999
2 32275  65.5599 315.0115 0003476 203.4693 156.5222  2.13104145145647
COSMOS 2432 (719)       
1 32276U 07052B   26195.61309976 -.00000064  00000+0  00000+0 0  9997
2 32276  65.5760 315.1395 0007406 322.2973 350.1210  2.13103094145660
COSMOS 2434 (721)       
1 32393U 07065A   26196.39612509  .00000054  00000+0  00000+0 0  9994
2 32393  64.3200 190.9641 0001276 327.5918 171.4568  2.13101170144375
COSMOS 2436 (723)       
1 32395U 07065C   26196.18930753  .00000056  00000+0  00000+0 0  9999
2 32395  64.3286 191.0436 0017314 353.5207 119.0574  2.13099957144324
COSMOS 2456 (730)       
1 36111U 09070A   26197.17812943 -.00000016  00000+0  00000+0 0  9994
2 36111  65.0282  69.9837 0003619 341.1750 196.1088  2.13103569129048
COSMOS 2457 (733)       
1 36112U 09070B   26194.19579927 -.00000012  00000+0  00000+0 0  9992
2 36112  65.0120  69.9289 0004075 121.6619  54.8410  2.13101172128982
COSMOS 2460 (732)       
1 36402U 10007C   26195.40307670 -.00000062  00000+0  00000+0 0  9990
2 36402  65.4032 313.5463 0001835 143.6915 240.9432  2.13101628127310
COSMOS 2476 (744)       
1 37867U 11064A   26197.29904150 -.00000015  00000+0  00000+0 0  9993
2 37867  65.2862  71.8891 0022131 235.9107 302.4557  2.13103672114380
COSMOS 2477 (745)       
1 37868U 11064B   26196.15395625 -.00000010  00000+0  00000+0 0  9994
2 37868  65.2921  72.0075 0019117 236.8947 323.2552  2.13102912114355
COSMOS 2475 (743)       
1 37869U 11064C   26196.23138681 -.00000010  00000+0  00000+0 0  9991
2 37869  65.2989  72.0268 0024840 251.2449 323.3113  2.13101755114360
COSMOS 2485 (747)       
1 39155U 13019A   26196.06559575 -.00000009  00000+0  00000+0 0  9991
2 39155  65.4351  72.6696 0022653 231.1274 128.7466  2.13103174102877
COSMOS 2492 (754)       
1 39620U 14012A   26195.55517278 -.00000062  00000+0  00000+0 0  9998
2 39620  65.2800 313.0063 0010322 317.7862  42.1441  2.13103205 95828
COSMOS 2500 (755)       
1 40001U 14032A   26196.19383985 -.00000061  00000+0  00000+0 0  9991
2 40001  65.2146 312.7295 0008262 190.4247 169.5708  2.13105781 94057
COSMOS 2501 (702K)      
1 40315U 14075A   26195.04843601  .00000065  00000+0  00000+0 0  9998
2 40315  63.6185 189.4424 0022586 212.6579 147.2095  2.13101105 90428
COSMOS 2514 (751)       
1 41330U 16008A   26196.44078681 -.00000061  00000+0  00000+0 0  9994
2 41330  65.0030 312.0370 0012316 201.1829 158.7806  2.13102558 81224
COSMOS 2522 (752)       
1 42939U 17055A   26196.27842325  .00000055  00000+0  00000+0 0  9990
2 42939  64.0806 190.9281 0010934 240.7773 119.1159  2.13101758 68571
COSMOS 2527 (756)       
1 43508U 18053A   26195.30191606 -.00000008  00000+0  00000+0 0  9993
2 43508  65.5923  73.0036 0006413 229.6749 130.3442  2.13102086 62855
COSMOS 2529 (757)       
1 43687U 18086A   26196.33663880  .00000055  00000+0  00000+0 0  9990
2 43687  64.2971 191.6437 0012140 256.3139 103.5547  2.13101945 59888
COSMOS 2534 (758)       
1 44299U 19030A   26196.86836806  .00000052  00000+0  00000+0 0  9995
2 44299  64.3704 191.6506 0013524 275.0197 267.3680  2.13102194 55531
COSMOS 2544 (759)       
1 44850U 19088A   26195.24650199 -.00000008  00000+0  00000+0 0  9993
2 44850  65.5799  72.8282 0012152 253.9346 106.0066  2.13102807 51296
COSMOS 2545 (760)       
1 45358U 20018A   26196.37994293 -.00000061  00000+0  00000+0 0  9992
2 45358  64.3368 311.4285 0009576 229.8153 130.1163  2.13102376 49269
COSMOS 2547 (705K)      
1 46805U 20075A   26196.56966866  .00000054  00000+0  00000+0 0  9990
2 46805  64.6014 191.5282 0009458 239.8249 120.0839  2.13099910 44518
COSMOS 2557 (706K)      
1 52984U 22075A   26196.26454493 -.00000064  00000+0  00000+0 0  9994
2 52984  64.2806 313.4964 0010843 271.2690  88.6188  2.13102178 31311
COSMOS 2559 (707K)      
1 54031U 22130A   26195.61497873 -.00000064  00000+0  00000+0 0  9998
2 54031  64.2533 313.6016 0013085 181.0015 179.0060  2.13101643 29275
COSMOS 2564 (761)       
1 54377U 22161A   26195.92736262  .00000059  00000+0  00000+0 0  9990
2 54377  64.7437 191.7908 0012238 224.9723 134.9352  2.13101973 28227
COSMOS 2569 (703K)      
1 57517U 23114A   26196.87819896 -.00000013  00000+0  00000+0 0  9999
2 57517  65.3185  71.6532 0009655 295.9092  64.0686  2.13103741 22871
COSMOS 2584 (704K)      
1 63130U 25042A   26194.88797737 -.00000010  00000+0  00000+0 0  9994
2 63130  65.0996  71.8945 0005460 213.8001 146.2394  2.13103784 10610
COSMOS 2596 (708K)      
1 65590U 25206B   26194.33478170 -.00000064  00000+0  00000+0 0  9994
2 65590  64.6178 314.0753 0011126 307.7533 103.9433  2.13100618  6473
